ORBCOMM FM115 [+]       
1 41186U 15081H   23321.55917687  .00000828  00000+0  20604-3 0  9996
2 41186  46.9996 261.2851 0001359 292.5315  67.5427 14.60103897423295
ORBCOMM FM108 [+]       
1 41187U 15081J   23321.66432728  .00000886  00000+0  23687-3 0  9995
2 41187  47.0058 309.6123 0002280 207.0929 152.9837 14.56036356422576
ORBCOMM FM117 [+]       
1 41188U 15081K   23321.69874338  .00000897  00000+0  23932-3 0  9991
2 41188  47.0019 308.4034 0003062 215.2923 144.7759 14.56036864422628
ORBCOMM FM116 [+]       
1 41189U 15081L   23321.89422325  .00000889  00000+0  23756-3 0  9994
2 41189  47.0032  37.2898 0003045 278.4569  81.5971 14.56052544421465
