<?xml version="1.0" encoding="UTF-8"?>
<ndm xmlns:xsi="http://www.w3.org/2001/XMLSchema-instance" xsi:noNamespaceSchemaLocation="https://sanaregistry.org/r/ndmxml_unqualified/ndmxml-2.0.0-master-2.0.xsd">
<omm id="CCSDS_OMM_VERS" version="2.0">
<header><CREATION_DATE/><ORIGINATOR/></header><body><segment><metadata><OBJECT_NAME>ORBCOMM FM115 [+]</OBJECT_NAME><OBJECT_ID>2015-081H</OBJECT_ID><CENTER_NAME>EARTH</CENTER_NAME><REF_FRAME>TEME</REF_FRAME><TIME_SYSTEM>UTC</TIME_SYSTEM><MEAN_ELEMENT_THEORY>SGP4</MEAN_ELEMENT_THEORY></metadata><data><meanElements><EPOCH>2023-11-17T13:25:12.881568</EPOCH><MEAN_MOTION>14.60103897</MEAN_MOTION><ECCENTRICITY>.0001359</ECCENTRICITY><INCLINATION>46.9996</INCLINATION><RA_OF_ASC_NODE>261.2851</RA_OF_ASC_NODE><ARG_OF_PERICENTER>292.5315</ARG_OF_PERICENTER><MEAN_ANOMALY>67.5427</MEAN_ANOMALY></meanElements><tleParameters><EPHEMERIS_TYPE>0</EPHEMERIS_TYPE><CLASSIFICATION_TYPE>U</CLASSIFICATION_TYPE><NORAD_CAT_ID>41186</NORAD_CAT_ID><ELEMENT_SET_NO>999</ELEMENT_SET_NO><REV_AT_EPOCH>42329</REV_AT_EPOCH><BSTAR>.20604E-3</BSTAR><MEAN_MOTION_DOT>.828E-5</MEAN_MOTION_DOT><MEAN_MOTION_DDOT>0</MEAN_MOTION_DDOT></tleParameters></data></segment></body></omm>
<omm id="CCSDS_OMM_VERS" version="2.0">
<header><CREATION_DATE/><ORIGINATOR/></header><body><segment><metadata><OBJECT_NAME>ORBCOMM FM108 [+]</OBJECT_NAME><OBJECT_ID>2015-081J</OBJECT_ID><CENTER_NAME>EARTH</CENTER_NAME><REF_FRAME>TEME</REF_FRAME><TIME_SYSTEM>UTC</TIME_SYSTEM><MEAN_ELEMENT_THEORY>SGP4</MEAN_ELEMENT_THEORY></metadata><data><meanElements><EPOCH>2023-11-17T15:56:37.876992</EPOCH><MEAN_MOTION>14.56036356</MEAN_MOTION><ECCENTRICITY>.000228</ECCENTRICITY><INCLINATION>47.0058</INCLINATION><RA_OF_ASC_NODE>309.6123</RA_OF_ASC_NODE><ARG_OF_PERICENTER>207.0929</ARG_OF_PERICENTER><MEAN_ANOMALY>152.9837</MEAN_ANOMALY></meanElements><tleParameters><EPHEMERIS_TYPE>0</EPHEMERIS_TYPE><CLASSIFICATION_TYPE>U</CLASSIFICATION_TYPE><NORAD_CAT_ID>41187</NORAD_CAT_ID><ELEMENT_SET_NO>999</ELEMENT_SET_NO><REV_AT_EPOCH>42257</REV_AT_EPOCH><BSTAR>.23687E-3</BSTAR><MEAN_MOTION_DOT>.886E-5</MEAN_MOTION_DOT><MEAN_MOTION_DDOT>0</MEAN_MOTION_DDOT></tleParameters></data></segment></body></omm>
<omm id="CCSDS_OMM_VERS" version="2.0">
<header><CREATION_DATE/><ORIGINATOR/></header><body><segment><metadata><OBJECT_NAME>ORBCOMM FM117 [+]</OBJECT_NAME><OBJECT_ID>2015-081K</OBJECT_ID><CENTER_NAME>EARTH</CENTER_NAME><REF_FRAME>TEME</REF_FRAME><TIME_SYSTEM>UTC</TIME_SYSTEM><MEAN_ELEMENT_THEORY>SGP4</MEAN_ELEMENT_THEORY></metadata><data><meanElements><EPOCH>2023-11-17T16:46:11.428032</EPOCH><MEAN_MOTION>14.56036864</MEAN_MOTION><ECCENTRICITY>.0003062</ECCENTRICITY><INCLINATION>47.0019</INCLINATION><RA_OF_ASC_NODE>308.4034</RA_OF_ASC_NODE><ARG_OF_PERICENTER>215.2923</ARG_OF_PERICENTER><MEAN_ANOMALY>144.7759</MEAN_ANOMALY></meanElements><tleParameters><EPHEMERIS_TYPE>0</EPHEMERIS_TYPE><CLASSIFICATION_TYPE>U</CLASSIFICATION_TYPE><NORAD_CAT_ID>41188</NORAD_CAT_ID><ELEMENT_SET_NO>999</ELEMENT_SET_NO><REV_AT_EPOCH>42262</REV_AT_EPOCH><BSTAR>.23932E-3</BSTAR><MEAN_MOTION_DOT>.897E-5</MEAN_MOTION_DOT><MEAN_MOTION_DDOT>0</MEAN_MOTION_DDOT></tleParameters></data></segment></body></omm>
<omm id="CCSDS_OMM_VERS" version="2.0">
<header><CREATION_DATE/><ORIGINATOR/></header><body><segment><metadata><OBJECT_NAME>ORBCOMM FM116 [+]</OBJECT_NAME><OBJECT_ID>2015-081L</OBJECT_ID><CENTER_NAME>EARTH</CENTER_NAME><REF_FRAME>TEME</REF_FRAME><TIME_SYSTEM>UTC</TIME_SYSTEM><MEAN_ELEMENT_THEORY>SGP4</MEAN_ELEMENT_THEORY></metadata><data><meanElements><EPOCH>2023-11-17T21:27:40.888800</EPOCH><MEAN_MOTION>14.56052544</MEAN_MOTION><ECCENTRICITY>.0003045</ECCENTRICITY><INCLINATION>47.0032</INCLINATION><RA_OF_ASC_NODE>37.2898</RA_OF_ASC_NODE><ARG_OF_PERICENTER>278.4569</ARG_OF_PERICENTER><MEAN_ANOMALY>81.5971</MEAN_ANOMALY></meanElements><tleParameters><EPHEMERIS_TYPE>0</EPHEMERIS_TYPE><CLASSIFICATION_TYPE>U</CLASSIFICATION_TYPE><NORAD_CAT_ID>41189</NORAD_CAT_ID><ELEMENT_SET_NO>999</ELEMENT_SET_NO><REV_AT_EPOCH>42146</REV_AT_EPOCH><BSTAR>.23756E-3</BSTAR><MEAN_MOTION_DOT>.889E-5</MEAN_MOTION_DOT><MEAN_MOTION_DDOT>0</MEAN_MOTION_DDOT></tleParameters></data></segment></body></omm>
</ndm>
